[Satellite]
VERSION=1.1
NAME=Zhou Enlai
NICKNAME=Zhou Enlai
TLE1=1 43156U 18008B   19311.73537758  .00001165  00000-0  73734-4 0  9997
TLE2=2 43156  97.4788  21.0786 0014547 187.7816 270.3107 15.10834019 99243
STATUS=0
